[{"OBJECT_NAME":"STARLINK-35249","OBJECT_ID":"2025-224V","EPOCH":"2026-03-09T05:47:23.832384","MEAN_MOTION":15.30196702,"ECCENTRICITY":7.337e-5,"INCLINATION":53.1622,"RA_OF_ASC_NODE":13.5661,"ARG_OF_PERICENTER":86.4322,"MEAN_ANOMALY":273.6763,"EPHEMERIS_TYPE":0,"CLASSIFICATION_TYPE":"U","NORAD_CAT_ID":65901,"ELEMENT_SET_NO":999,"REV_AT_EPOCH":2478,"BSTAR":0.00147574,"MEAN_MOTION_DOT":0.000436,"MEAN_MOTION_DDOT":0},{"OBJECT_NAME":"CZ-4 DEB","OBJECT_ID":"2006-046L","EPOCH":"2026-03-09T05:26:57.251328","MEAN_MOTION":15.20206122,"ECCENTRICITY":0.00567956,"INCLINATION":97.8211,"RA_OF_ASC_NODE":163.0679,"ARG_OF_PERICENTER":229.3561,"MEAN_ANOMALY":130.2727,"EPHEMERIS_TYPE":0,"CLASSIFICATION_TYPE":"U","NORAD_CAT_ID":35378,"ELEMENT_SET_NO":999,"REV_AT_EPOCH":2541,"BSTAR":0.0021311714,"MEAN_MOTION_DOT":0.00048409,"MEAN_MOTION_DDOT":0}]
